[{"OBJECT_NAME":"OBJECT V","OBJECT_ID":"2023-085V","EPOCH":"2026-03-09T21:44:00.165408","MEAN_MOTION":15.30745852,"ECCENTRICITY":0.00069081,"INCLINATION":97.4843,"RA_OF_ASC_NODE":179.3833,"ARG_OF_PERICENTER":71.0503,"MEAN_ANOMALY":289.1485,"EPHEMERIS_TYPE":0,"CLASSIFICATION_TYPE":"U","NORAD_CAT_ID":57023,"ELEMENT_SET_NO":999,"REV_AT_EPOCH":15149,"BSTAR":0.00067780507,"MEAN_MOTION_DOT":0.00020109,"MEAN_MOTION_DDOT":0},{"OBJECT_NAME":"STARLINK-35014","OBJECT_ID":"2025-192AB","EPOCH":"2026-03-09T17:06:31.112640","MEAN_MOTION":15.30189497,"ECCENTRICITY":9.794e-5,"INCLINATION":53.1599,"RA_OF_ASC_NODE":232.532,"ARG_OF_PERICENTER":49.0142,"MEAN_ANOMALY":311.0944,"EPHEMERIS_TYPE":0,"CLASSIFICATION_TYPE":"U","NORAD_CAT_ID":65429,"ELEMENT_SET_NO":999,"REV_AT_EPOCH":2938,"BSTAR":0.0008248158,"MEAN_MOTION_DOT":0.00024141,"MEAN_MOTION_DDOT":0}]
